{
  "norad_id": 48979,
  "name": "ONEWEB-0261",
  "history": [
    {
      "epoch": "2026-03-28T21:10:41.261664Z",
      "apogee_km": 1199.3268837826226,
      "perigee_km": 1196.1904629738438,
      "latitude_deg": -1.79702732893146e-05,
      "longitude_deg": 100.77978500445336,
      "height_km": 1201.0022611950087,
      "semi_major_axis_km": 7575.8956733782325,
      "eccentricity": 0.000207,
      "inclination_deg": 87.9027,
      "raan_deg": 244.7482,
      "arg_perigee_deg": 102.8963,
      "mean_anomaly_deg": 257.2399,
      "mean_motion_rev_day": 13.16593734
    },
    {
      "epoch": "2026-03-28T21:10:41.262528Z",
      "apogee_km": 1199.3268837826226,
      "perigee_km": 1196.1904629738438,
      "latitude_deg": 8.254824570971943e-05,
      "longitude_deg": 100.77978505706962,
      "height_km": 1201.0022481437068,
      "semi_major_axis_km": 7575.8956733782325,
      "eccentricity": 0.000207,
      "inclination_deg": 87.9027,
      "raan_deg": 244.7482,
      "arg_perigee_deg": 102.8964,
      "mean_anomaly_deg": 257.2399,
      "mean_motion_rev_day": 13.16593734
    },
    {
      "epoch": "2026-03-30T04:11:05.673408Z",
      "apogee_km": 1199.3519307645702,
      "perigee_km": 1196.1691446910208,
      "latitude_deg": -1.0950135512965046e-05,
      "longitude_deg": -5.852932924831444,
      "height_km": 1200.994031954031,
      "semi_major_axis_km": 7575.897537727796,
      "eccentricity": 0.00021006,
      "inclination_deg": 87.9028,
      "raan_deg": 244.4906,
      "arg_perigee_deg": 102.3354,
      "mean_anomaly_deg": 257.8012,
      "mean_motion_rev_day": 13.16593248
    },
    {
      "epoch": "2026-03-30T11:28:50.176992Z",
      "apogee_km": 1199.3431537530332,
      "perigee_km": 1196.1743080867036,
      "latitude_deg": -1.9325989247904196e-05,
      "longitude_deg": -115.64858804373634,
      "height_km": 1200.987279276565,
      "semi_major_axis_km": 7575.895730919869,
      "eccentricity": 0.00020914,
      "inclination_deg": 87.9028,
      "raan_deg": 244.43,
      "arg_perigee_deg": 102.2069,
      "mean_anomaly_deg": 257.9296,
      "mean_motion_rev_day": 13.16593719
    },
    {
      "epoch": "2026-03-30T20:36:00.864576Z",
      "apogee_km": 1199.3456555966823,
      "perigee_km": 1196.1709009213755,
      "latitude_deg": 2.5731830361547898e-05,
      "longitude_deg": 107.10665231788673,
      "height_km": 1200.9838843042705,
      "semi_major_axis_km": 7575.895278259029,
      "eccentricity": 0.00020953,
      "inclination_deg": 87.9028,
      "raan_deg": 244.3543,
      "arg_perigee_deg": 102.0758,
      "mean_anomaly_deg": 258.0608,
      "mean_motion_rev_day": 13.16593837
    },
    {
      "epoch": "2026-03-31T16:39:48.396960Z",
      "apogee_km": 1199.3534454604778,
      "perigee_km": 1196.1639933626057,
      "latitude_deg": 4.653263229981871e-06,
      "longitude_deg": 165.16793460144459,
      "height_km": 1200.982008572446,
      "semi_major_axis_km": 7575.895719411542,
      "eccentricity": 0.0002105,
      "inclination_deg": 87.9029,
      "raan_deg": 244.1876,
      "arg_perigee_deg": 101.9348,
      "mean_anomaly_deg": 258.2019,
      "mean_motion_rev_day": 13.16593722
    },
    {
      "epoch": "2026-04-01T16:22:28.174656Z",
      "apogee_km": 1199.3581709293048,
      "perigee_km": 1196.1565979624384,
      "latitude_deg": -1.0197094828134153e-05,
      "longitude_deg": 168.33151673535323,
      "height_km": 1200.9739292074478,
      "semi_major_axis_km": 7575.894384445872,
      "eccentricity": 0.0002113,
      "inclination_deg": 87.9032,
      "raan_deg": 243.9907,
      "arg_perigee_deg": 101.6429,
      "mean_anomaly_deg": 258.4939,
      "mean_motion_rev_day": 13.1659407
    },
    {
      "epoch": "2026-04-02T16:05:07.989504Z",
      "apogee_km": 1199.3577375997866,
      "perigee_km": 1196.157982646666,
      "latitude_deg": 6.771144393811885e-05,
      "longitude_deg": 171.4951466130174,
      "height_km": 1200.9623647653755,
      "semi_major_axis_km": 7575.894860123226,
      "eccentricity": 0.00021118,
      "inclination_deg": 87.9038,
      "raan_deg": 243.794,
      "arg_perigee_deg": 101.2102,
      "mean_anomaly_deg": 258.9267,
      "mean_motion_rev_day": 13.16593946
    },
    {
      "epoch": "2026-04-02T21:33:26.373888Z",
      "apogee_km": 1199.35682303069,
      "perigee_km": 1196.1538872607816,
      "latitude_deg": 3.4875553491578193e-05,
      "longitude_deg": 89.14842622618647,
      "height_km": 1200.957123478277,
      "semi_major_axis_km": 7575.892355145736,
      "eccentricity": 0.00021139,
      "inclination_deg": 87.9039,
      "raan_deg": 243.7486,
      "arg_perigee_deg": 101.0991,
      "mean_anomaly_deg": 259.0378,
      "mean_motion_rev_day": 13.16594599
    }
  ]
}